NANOSATC-BR1            
1 40024U 14033Q   26068.98267556  .00020336  00000+0  74295-3 0  9994
2 40024  98.0845  92.7804 0004644 147.6715 212.4808 15.28136801638811
STARLINK-36048          
1 66603U 25270R   26068.00252746  .00025947  00000+0  94906-3 0  9992
2 66603  42.9969  59.8093 0000627 273.9101  86.1679 15.27580914 17506
